INTELSAT 902 (IS-902)   
1 26900U 01039A   26199.46985542 -.00000293  00000+0  00000+0 0  9993
2 26900   6.1927  71.3972 0004174  45.5994 298.3258  1.00271441 91002
INTELSAT 904 (IS-904)   
1 27380U 02007A   26199.40229124 -.00000236  00000+0  00000+0 0  9990
2 27380   6.9961  68.8066 0005411  27.4080 313.3302  1.00270363 52070
DIRECTV 5 (TEMPO 1)     
1 27426U 02023A   26199.42058557 -.00000067  00000+0  00000+0 0  9993
2 27426   4.9557  74.9200 0003232  49.6609 212.9375  1.00271908 88439
INTELSAT 905 (IS-905)   
1 27438U 02027A   26199.73770382  .00000084  00000+0  00000+0 0  9999
2 27438   6.8308  69.4163 0003555  48.8146 306.6679  1.00272756 51675
GALAXY 3C (G-3C)        
1 27445U 02030A   26198.81942775 -.00000163  00000+0  00000+0 0  9995
2 27445   3.8113  77.5805 0001653  31.4456  26.7582  1.00270872 46805
INTELSAT 906 (IS-906)   
1 27513U 02041A   26199.78636399  .00000003  00000+0  00000+0 0  9994
2 27513   5.8796  72.5283 0003681  29.6139 181.7077  1.00273884 87346
GALAXY 13 (HORIZONS-1)  
1 27954U 03044A   26199.73519049  .00000125  00000+0  00000+0 0  9999
2 27954   1.4978  83.4547 0002104  36.4231 291.3131  1.00272872 46880
INTELSAT 10-02          
1 28358U 04022A   26199.75670075 -.00000018  00000+0  00000+0 0  9996
2 28358   0.0528 253.9863 0000147 356.2154 317.7541  1.00270531 80877
DIRECTV 8               
1 28659U 05019A   26199.74125718 -.00000005  00000+0  00000+0 0  9991
2 28659   0.0187  61.6379 0003037  61.4430 321.2488  1.00272165 77388
GALAXY 28 (G-28)        
1 28702U 05022A   26199.75954391 -.00000208  00000+0  00000+0 0  9997
2 28702   3.3769  78.5412 0002472  33.7103  70.6442  1.00271220 52294
GALAXY 16 (G-16)        
1 29236U 06023A   26199.67404720 -.00000134  00000+0  00000+0 0  9997
2 29236   0.0244 146.3120 0002629 330.7179 323.0864  1.00271555 73282
DIRECTV 9S              
1 29494U 06043A   26199.58308632 -.00000122  00000+0  00000+0 0  9997
2 29494   2.5000  80.5247 0005046  32.7048 291.8605  1.00271531 51694
GALAXY 17 (G-17)        
1 31307U 07016B   26199.53419193 -.00000215  00000+0  00000+0 0  9997
2 31307   3.0491  79.5055 0003690  36.7359 287.3764  1.00271231 70118
INTELSAT 11 (IS-11)     
1 32253U 07044B   26199.33498417 -.00000221  00000+0  00000+0 0  9990
2 32253   3.6447  78.2916 0004340  99.6437 227.6151  0.99052932 68752
HORIZONS-2              
1 32388U 07063B   26199.75027056 -.00000261  00000+0  00000+0 0  9997
2 32388   2.6817  80.2401 0003598  17.9256  34.6717  1.00272886 68130
DIRECTV 11              
1 32729U 08013A   26199.58308632 -.00000133  00000+0  00000+0 0  9993
2 32729   0.0038 258.4183 0000074 198.8034 309.8804  1.00271591 45907
GALAXY 18 (G-18)        
1 32951U 08024A   26199.58864397  .00000018  00000+0  00000+0 0  9998
2 32951   0.0193  80.6595 0002924  35.7671 268.8509  1.00271527 46164
GALAXY 19 (G-19)        
1 33376U 08045A   26199.57952318 -.00000146  00000+0  00000+0 0  9996
2 33376   0.0440 245.8172 0002494 241.6064 280.5810  1.00270987 65215
FM-5                    
1 35493U 09034A   26198.96360093 -.00000209  00000+0  00000+0 0  9992
2 35493   0.0358 248.5990 0000724 112.8401 195.0577  1.00271932 46952
INTELSAT 14 (IS-14)     
1 36097U 09064A   26199.79697494  .00000000  00000+0  00000+0 0  9994
2 36097   0.0191  46.6322 0002505  71.3641  60.5183  1.00269749 60923
INTELSAT 15 (IS-15)     
1 36106U 09067A   26199.84003030 -.00000192  00000+0  00000+0 0  9994
2 36106   0.0156  49.0723 0002329  67.1648 207.9497  1.00272808 41543
DIRECTV 12              
1 36131U 09075A   26199.46850486 -.00000111  00000+0  00000+0 0  9995
2 36131   0.0377 206.0822 0000287  16.0154 140.1053  1.00272112 46861
INTELSAT 16 (IS-16)     
1 36397U 10006A   26199.62891935 -.00000252  00000+0  00000+0 0  9993
2 36397   0.0189  63.4364 0002385  72.4664 310.7238  1.00271780 59971
XM-5                    
1 37185U 10053A   26199.31435740 -.00000031  00000+0  00000+0 0  9990
2 37185   0.0601 263.6204 0001405 320.7264  69.7395  1.00272616 57792
INTELSAT 17 (IS-17)     
1 37238U 10065B   26199.78636399 -.00000008  00000+0  00000+0 0  9990
2 37238   0.0071  89.8196 0002560  39.4454 156.4053  1.00272510 53567
INTELSAT 28 (IS-28)     
1 37392U 11016A   26199.75867726 -.00000232  00000+0  00000+0 0  9994
2 37392   1.8860  82.2414 0003830  41.3673  54.3625  1.00271758 53608
INTELSAT 18 (IS-18)     
1 37834U 11056A   26199.72929712  .00000046  00000+0  00000+0 0  9992
2 37834   0.0375 235.7276 0001882 252.7167 250.6266  1.00273039 54127
INTELSAT 22 (IS-22)     
1 38098U 12011A   26199.79330648 -.00000065  00000+0  00000+0 0  9990
2 38098   0.0200  60.6237 0001842  68.8371 164.8197  1.00272019  7504
INTELSAT 19 (IS-19)     
1 38356U 12030A   26199.72652376 -.00000063  00000+0  00000+0 0  9994
2 38356   0.0161  52.0829 0002933  64.8445 247.1300  1.00272000 50766
INTELSAT 20 (IS-20)     
1 38740U 12043A   26199.79330648 -.00000031  00000+0  00000+0 0  9992
2 38740   0.0146  72.6771 0001317 110.0673 107.9381  1.00271134 51065
INTELSAT 21 (IS-21)     
1 38749U 12045A   26199.80808498 -.00000291  00000+0  00000+0 0  9996
2 38749   0.0462 243.6904 0001700 243.9895  41.8395  1.00271992 50849
